0 SL-16 R/B
1 27006U 01056F   13282.15631591 -.00000017  00000-0  28138-4 0  9539
2 27006 099.1453 096.9561 0014102 226.7814 264.9883 13.70905086591927
0 SL-16 R/B
1 27006U 01056F   13283.17730652 -.00000017  00000-0  27506-4 0  9549
2 27006 099.1452 097.9280 0014142 223.9589 263.9901 13.70905125592067
0 SL-16 R/B
1 27006U 01056F   13286.16990275 -.00000042  00000-0 -79615-7 0  9562
2 27006 099.1450 100.7769 0014262 215.8878 273.4609 13.70905379592471
0 SL-16 R/B
1 27006U 01056F   13287.46118313 -.00000039  00000-0  27573-5 0  9571
2 27006 099.1451 102.0061 0014293 212.5566 166.2139 13.70905484592658
0 SL-16 R/B
1 27006U 01056F   13288.49278332 -.00000043  00000-0 -10484-5 0  9583
2 27006 099.1451 102.9880 0014345 209.7327 217.5509 13.70905571592790
0 SL-16 R/B
1 27006U 01056F   13289.51332019 -.00000042  00000-0 -43870-6 0  9596
2 27006 099.1453 103.9595 0014383 207.0577 214.1685 13.70905602592935
0 SL-16 R/B
1 27006U 01056F   13290.53262569 -.00000033  00000-0  98223-5 0  9604
2 27006 099.1454 104.9298 0014427 204.3090 204.7863 13.70905601593074
0 SL-16 R/B
1 27006U 01056F   13291.64464811 -.00000041  00000-0  10464-5 0  9612
2 27006 099.1456 105.9884 0014478 201.3649 292.9381 13.70905537593220
0 SL-16 R/B
1 27006U 01056F   13293.17601181 -.00000032  00000-0  10826-4 0  9627
2 27006 099.1457 107.4462 0014519 197.3893 290.5824 13.70905460593435
0 SL-16 R/B
1 27006U 01056F   13294.63684949 -.00000015  00000-0  29549-4 0  9636
2 27006 099.1457 108.8369 0014586 193.5497 300.2102 13.70905511593635
